OBJECT_NAME,OBJECT_ID,EPOCH,MEAN_MOTION,ECCENTRICITY,INCLINATION,RA_OF_ASC_NODE,ARG_OF_PERICENTER,MEAN_ANOMALY,EPHEMERIS_TYPE,CLASSIFICATION_TYPE,NORAD_CAT_ID,ELEMENT_SET_NO,REV_AT_EPOCH,BSTAR,MEAN_MOTION_DOT,MEAN_MOTION_DDOT
CARTOSAT-2E,2017-036C,2026-07-18T20:33:35.216640,15.19267421,.0003598,97.4253,259.1338,174.7811,185.3461,0,U,42767,999,50295,.66371E-4,.1332E-4,0
D-SAT,2017-036AF,2026-07-18T21:16:02.731008,15.17432114,.0082552,97.5581,178.7250,52.7763,308.0966,0,U,42794,999,49566,.24019E-3,.5174E-4,0
IRIDIUM 113,2017-039A,2026-07-18T18:37:03.173952,14.34217629,.000213,86.3992,308.9768,93.0152,267.1288,0,U,42803,999,47571,.12659E-4,.55E-6,0
NORSAT 2,2017-042D,2026-07-18T17:05:39.271776,15.22464906,.0008036,97.4062,12.6682,303.6494,56.3976,0,U,42828,999,49253,.22434E-3,.5127E-4,0
TECHNOSAT,2017-042E,2026-07-18T16:43:06.322080,15.05121620,.0017091,97.4323,356.1645,352.0472,8.0481,0,U,42829,999,49144,.91546E-4,.1247E-4,0
FLYING LAPTOP,2017-042G,2026-07-18T20:17:57.324768,15.01328064,.0019537,97.4827,354.1910,20.8806,339.3212,0,U,42831,999,49120,.17183E-3,.2162E-4,0
WNISAT 1R,2017-042L,2026-07-18T09:45:56.738016,15.01861207,.00104331,97.4817,354.4137,54.5316,305.6882,0,U,42835,999,49119,.27852992E-4,.306E-5,0
LEMUR-2-GREENBERG,2017-042N,2026-07-18T01:13:36.647040,15.32207983,.00073229,97.3835,19.5561,247.3182,112.7286,0,U,42837,999,49311,.31415728E-3,.9701E-4,0
LEMUR-2-FURIAUS,2017-042R,2026-07-18T10:59:35.649600,15.31195052,.00056947,97.3785,17.8461,315.3320,44.7462,0,U,42840,999,49299,.31588602E-3,.9448E-4,0
CORVUS BC2,2017-042X,2026-07-18T17:55:46.455744,15.06465351,.0013081,97.4094,359.8787,10.9554,349.1956,0,U,42846,999,49181,.82279E-4,.1156E-4,0
CORVUS BC1,2017-042Y,2026-07-18T08:09:11.715552,15.06629317,.00113246,97.4125,0.3212,348.7981,11.2993,0,U,42847,999,49178,.11517625E-3,.1649E-4,0
VRSS-2,2017-060A,2026-07-18T20:52:13.105632,14.81241667,.0017096,97.6494,236.1679,1.9706,358.1571,0,U,42954,999,47314,.89125E-4,.646E-5,0
MOHAMMED VI-A,2017-070A,2026-07-18T20:18:43.647264,14.77105966,.0001271,97.9544,271.7397,98.6254,261.5101,0,U,43005,999,46865,.81481E-4,.525E-5,0
FENGYUN 3D,2017-072A,2026-07-18T20:39:45.704160,14.19743935,.0001336,99.0150,174.8590,6.2501,353.8691,0,U,43010,999,44948,-.79314E-4,-.214E-5,0
CZ-4C R/B,2017-072C,2026-07-18T19:09:17.428896,14.58810723,.0123293,98.5816,308.8352,54.9133,306.3553,0,U,43012,999,46124,.35603E-4,.128E-5,0
NOAA 20 (JPSS-1),2017-073A,2026-07-18T18:58:30.527904,14.19516873,.0001516,98.7772,138.9734,120.6239,239.5086,0,U,43013,999,44895,.33271E-4,.26E-6,0
MAKERSAT 0,2017-073D,2026-07-18T14:02:09.304224,15.33085965,.0105621,97.4572,82.3624,160.2361,200.3022,0,U,43016,999,47127,.27996E-3,.10616E-3,0
RADFXSAT (FOX-1B),2017-073E,2026-07-18T21:19:39.755712,15.13090788,.014837,97.4662,66.4574,218.5900,140.4654,0,U,43017,999,47018,.15125E-3,.3432E-4,0
JILIN-1 04,2017-074A,2026-07-18T19:14:20.984064,15.43190789,.0005219,97.4879,310.2782,91.0723,269.1122,0,U,43022,999,47914,.17862E-3,.7835E-4,0
JILIN-1 05,2017-074B,2026-07-18T19:42:30.998304,15.34317751,.0006571,97.4882,306.4163,114.7333,245.4594,0,U,43023,999,47885,.12601E-3,.4106E-4,0
JILIN-1 06,2017-074C,2026-07-18T19:08:49.138080,15.34021038,.0008274,97.4806,303.3593,123.4570,236.7464,0,U,43024,999,47868,.10728E-3,.3452E-4,0
IRIDIUM 116,2017-083C,2026-07-18T19:40:59.168064,14.34216762,.0002495,86.3989,308.7782,100.0325,260.1153,0,U,43072,999,44870,.3809E-4,.126E-5,0
IRIDIUM 130,2017-083D,2026-07-18T18:55:19.278048,14.34218787,.0002331,86.3995,309.0701,100.3469,259.7989,0,U,43073,999,44864,.4344E-4,.141E-5,0
LKW-2,2017-084A,2026-07-18T21:15:29.936160,15.26716326,.0003861,97.1174,238.2052,112.6326,247.5322,0,U,43080,999,47652,.10604E-3,.2717E-4,0
SUPERVIEW-1 03,2018-002A,2026-07-18T19:31:46.015392,15.40290869,.0046674,97.3124,284.6245,68.4373,292.1838,0,U,43099,999,47323,.22187E-3,.92E-4,0
CARTOSAT-2F,2018-004A,2026-07-18T19:45:52.051968,15.19189867,.0002504,97.4767,259.1460,127.2617,232.8847,0,U,43111,999,47213,.11486E-3,.2348E-4,0
LKW-3,2018-006A,2026-07-18T20:30:45.834624,15.35797574,.0003319,97.6646,1.6842,166.8353,193.2977,0,U,43146,999,47357,.2357E-3,.8124E-4,0
ASNARO-2,2018-007A,2026-07-18T19:13:24.214944,15.22420243,.0001746,97.3977,206.2345,91.4374,268.7062,0,U,43152,999,47222,.19097E-3,.4345E-4,0
JILIN-1 07,2018-008E,2026-07-18T20:10:12.072000,15.35199221,.0006423,97.1767,218.9342,312.0591,48.0106,0,U,43159,999,46985,.13905E-3,.4675E-4,0
JILIN-1 08,2018-008F,2026-07-18T20:43:01.238592,15.34034120,.0004876,97.1804,218.2366,337.5500,22.5529,0,U,43160,999,46980,.10056E-3,.3236E-4,0
